{
  "norad_id": 52283,
  "name": "STARLINK-3789",
  "history": [
    {
      "epoch": "2026-04-11T20:24:31.362336Z",
      "apogee_km": 540.6379476590655,
      "perigee_km": 538.8531339635347,
      "latitude_deg": 1.7173131015063527e-05,
      "longitude_deg": 174.06000178438669,
      "height_km": 540.6848558470707,
      "semi_major_axis_km": 6917.8825408113,
      "eccentricity": 0.000129,
      "inclination_deg": 53.2172,
      "raan_deg": 320.2546,
      "arg_perigee_deg": 92.7962,
      "mean_anomaly_deg": 267.3178,
      "mean_motion_rev_day": 15.08839296
    },
    {
      "epoch": "2026-04-12T23:26:04.980192Z",
      "apogee_km": 540.6344800931001,
      "perigee_km": 538.8771969542586,
      "latitude_deg": -5.3869868261787326e-05,
      "longitude_deg": 122.50385524646939,
      "height_km": 540.6548791123236,
      "semi_major_axis_km": 6917.8928385236795,
      "eccentricity": 0.00012701,
      "inclination_deg": 53.2171,
      "raan_deg": 315.1985,
      "arg_perigee_deg": 90.211,
      "mean_anomaly_deg": 269.9027,
      "mean_motion_rev_day": 15.08835927
    },
    {
      "epoch": "2026-04-14T19:56:52.604160Z",
      "apogee_km": 540.5626527900504,
      "perigee_km": 538.9286489079204,
      "latitude_deg": 4.354391011907452e-05,
      "longitude_deg": 164.65140295595128,
      "height_km": 540.63874897897,
      "semi_major_axis_km": 6917.882650848986,
      "eccentricity": 0.0001181,
      "inclination_deg": 53.2172,
      "raan_deg": 306.8725,
      "arg_perigee_deg": 89.8018,
      "mean_anomaly_deg": 270.311,
      "mean_motion_rev_day": 15.0883926
    },
    {
      "epoch": "2026-04-15T16:36:53.354880Z",
      "apogee_km": 540.6774945052639,
      "perigee_km": 538.8110501379915,
      "latitude_deg": -5.4377172828607245e-05,
      "longitude_deg": -150.068054616131,
      "height_km": 540.7490186283773,
      "semi_major_axis_km": 6917.881272321628,
      "eccentricity": 0.0001349,
      "inclination_deg": 53.2167,
      "raan_deg": 303.005,
      "arg_perigee_deg": 96.7124,
      "mean_anomaly_deg": 263.4021,
      "mean_motion_rev_day": 15.08839711
    },
    {
      "epoch": "2026-04-16T13:16:54.206688Z",
      "apogee_km": 540.7047520758488,
      "perigee_km": 538.780198005893,
      "latitude_deg": 3.038120444488575e-05,
      "longitude_deg": -104.7854986916474,
      "height_km": 540.7423243848727,
      "semi_major_axis_km": 6917.879475040871,
      "eccentricity": 0.0001391,
      "inclination_deg": 53.2177,
      "raan_deg": 299.1398,
      "arg_perigee_deg": 96.2134,
      "mean_anomaly_deg": 263.9017,
      "mean_motion_rev_day": 15.08840299
    },
    {
      "epoch": "2026-04-17T19:29:14.237376Z",
      "apogee_km": 540.6711351986214,
      "perigee_km": 538.8460559825935,
      "latitude_deg": 1.3331810075631359e-05,
      "longitude_deg": 155.24103077907552,
      "height_km": 540.7246529183216,
      "semi_major_axis_km": 6917.895595590608,
      "eccentricity": 0.00013191,
      "inclination_deg": 53.2159,
      "raan_deg": 293.4903,
      "arg_perigee_deg": 94.428,
      "mean_anomaly_deg": 265.6863,
      "mean_motion_rev_day": 15.08835025
    },
    {
      "epoch": "2026-04-18T20:55:24.435840Z",
      "apogee_km": 540.6677299094126,
      "perigee_km": 538.8441733273667,
      "latitude_deg": -7.60691704969611e-06,
      "longitude_deg": 127.89609559204105,
      "height_km": 540.6283434824055,
      "semi_major_axis_km": 6917.89295161839,
      "eccentricity": 0.0001318,
      "inclination_deg": 53.2165,
      "raan_deg": 288.7325,
      "arg_perigee_deg": 88.5371,
      "mean_anomaly_deg": 271.5772,
      "mean_motion_rev_day": 15.0883589
    },
    {
      "epoch": "2026-04-19T19:10:48.547200Z",
      "apogee_km": 540.6763511164554,
      "perigee_km": 538.8334247175135,
      "latitude_deg": 2.0156103869212457e-05,
      "longitude_deg": 148.96890113765895,
      "height_km": 540.6403155718463,
      "semi_major_axis_km": 6917.891887916984,
      "eccentricity": 0.0001332,
      "inclination_deg": 53.2171,
      "raan_deg": 284.5698,
      "arg_perigee_deg": 89.3607,
      "mean_anomaly_deg": 270.7538,
      "mean_motion_rev_day": 15.08836238
    },
    {
      "epoch": "2026-04-20T11:04:40.022976Z",
      "apogee_km": 540.7134555451303,
      "perigee_km": 538.7877923461292,
      "latitude_deg": 3.07296470676807e-05,
      "longitude_deg": -93.1223672274278,
      "height_km": 540.6454253048825,
      "semi_major_axis_km": 6917.8876239456295,
      "eccentricity": 0.00013918,
      "inclination_deg": 53.2174,
      "raan_deg": 281.5959,
      "arg_perigee_deg": 89.9491,
      "mean_anomaly_deg": 270.1661,
      "mean_motion_rev_day": 15.08837633
    }
  ]
}